FLOCK 4H-14             
1 66717U 25276BD  26115.88663510  .00008086  00000+0  37410-3 0  9990
2 66717  97.4221 190.5536 0002502 109.6616 250.4890 15.20399322 21749
FLOCK 4H-15             
1 66718U 25276BE  26116.47767328  .00007947  00000+0  38311-3 0  9995
2 66718  97.4236 190.8554 0004519 175.9116 184.2156 15.18973351 22567
FLOCK 4H-16             
1 66719U 25276BF  26116.46287291  .00007924  00000+0  37981-3 0  9998
2 66719  97.4252 190.9061 0004852 165.4221 194.7154 15.19171475 22563
FLOCK 4H-18             
1 66721U 25276BH  26116.46680669  .00007627  00000+0  36595-3 0  9997
2 66721  97.4196 190.7883 0003771 183.6319 176.4889 15.19153018 22567
FLOCK 4H-19             
1 66722U 25276BJ  26115.93951469  .00006723  00000+0  31112-3 0  9994
2 66722  97.4194 190.5804 0003275 108.3861 251.7731 15.20449681 21795
FLOCK 4H-20             
1 66723U 25276BK  26116.47487750  .00008888  00000+0  40911-3 0  9993
2 66723  97.4233 191.1600 0004147 115.8388 244.3276 15.20538111 21831
FLOCK 4H-21             
1 66724U 25276BL  26115.76143636  .00005431  00000+0  25390-3 0  9992
2 66724  97.4197 190.3644 0004014 117.6983 242.4660 15.20188123 21722
FLOCK 4H-22             
1 66725U 25276BM  26116.43342774  .00007973  00000+0  37838-3 0  9995
2 66725  97.4188 190.8179 0002716 175.6615 184.4644 15.19521713 22568
FLOCK 4H-23             
1 66726U 25276BN  26116.46507389  .00007673  00000+0  36834-3 0  9996
2 66726  97.4258 190.9112 0005188 158.7699 201.3751 15.19128399 22566
FLOCK 4H-24             
1 66727U 25276BP  26116.12582043  .00007276  00000+0  34860-3 0  9996
2 66727  97.4251 190.5987 0004279 171.7606 188.3699 15.19219069 22514
FLOCK 4H-25             
1 66728U 25276BQ  26115.77506544  .00006314  00000+0  29564-3 0  9996
2 66728  97.4209 190.3684 0002253 102.8959 257.2528 15.20073756 21751
FLOCK 4H-26             
1 66729U 25276BR  26116.47510420  .00007683  00000+0  37031-3 0  9991
2 66729  97.4206 190.8027 0005181 171.8718 188.2601 15.18987996 22569
FLOCK 4H-27             
1 66730U 25276BS  26116.51854553  .00006539  00000+0  30835-3 0  9990
2 66730  97.4183 191.0056 0002294 113.6894 246.4581 15.19814011 22585
FLOCK 4H-28             
1 66731U 25276BT  26115.94662855  .00007746  00000+0  37284-3 0  9995
2 66731  97.4193 190.2636 0004726 174.3927 185.7361 15.19033880 22482
FLOCK 4H-29             
1 66732U 25276BU  26116.52772118  .00007218  00000+0  34671-3 0  9996
2 66732  97.4188 190.8424 0003399 175.9072 184.2191 15.19132984 22571
FLOCK 4H-30             
1 66733U 25276BV  26116.52519507  .00007606  00000+0  36429-3 0  9992
2 66733  97.4250 190.9700 0004601 171.1233 189.0084 15.19212645 22571
FLOCK 4H-31             
1 66734U 25276BW  26115.74512214  .00006422  00000+0  30984-3 0  9999
2 66734  97.4184 190.0541 0003847 177.6054 182.5200 15.19022509 22458
