[{"OBJECT_NAME":"FLOCK 4H-14","OBJECT_ID":"2025-276BD","EPOCH":"2026-04-25T21:16:45.272640","MEAN_MOTION":15.20399322,"ECCENTRICITY":0.00025029,"INCLINATION":97.4221,"RA_OF_ASC_NODE":190.5536,"ARG_OF_PERICENTER":109.6616,"MEAN_ANOMALY":250.489,"EPHEMERIS_TYPE":0,"CLASSIFICATION_TYPE":"U","NORAD_CAT_ID":66717,"ELEMENT_SET_NO":999,"REV_AT_EPOCH":2174,"BSTAR":0.00037409641,"MEAN_MOTION_DOT":8.086e-5,"MEAN_MOTION_DDOT":0},{"OBJECT_NAME":"FLOCK 4H-15","OBJECT_ID":"2025-276BE","EPOCH":"2026-04-26T11:27:50.971392","MEAN_MOTION":15.18973351,"ECCENTRICITY":0.0004519,"INCLINATION":97.4236,"RA_OF_ASC_NODE":190.8554,"ARG_OF_PERICENTER":175.9116,"MEAN_ANOMALY":184.2156,"EPHEMERIS_TYPE":0,"CLASSIFICATION_TYPE":"U","NORAD_CAT_ID":66718,"ELEMENT_SET_NO":999,"REV_AT_EPOCH":2256,"BSTAR":0.00038311,"MEAN_MOTION_DOT":7.947e-5,"MEAN_MOTION_DDOT":0},{"OBJECT_NAME":"FLOCK 4H-16","OBJECT_ID":"2025-276BF","EPOCH":"2026-04-26T11:06:32.219424","MEAN_MOTION":15.19171475,"ECCENTRICITY":0.0004852,"INCLINATION":97.4252,"RA_OF_ASC_NODE":190.9061,"ARG_OF_PERICENTER":165.4221,"MEAN_ANOMALY":194.7154,"EPHEMERIS_TYPE":0,"CLASSIFICATION_TYPE":"U","NORAD_CAT_ID":66719,"ELEMENT_SET_NO":999,"REV_AT_EPOCH":2256,"BSTAR":0.00037981,"MEAN_MOTION_DOT":7.924e-5,"MEAN_MOTION_DDOT":0},{"OBJECT_NAME":"FLOCK 4H-18","OBJECT_ID":"2025-276BH","EPOCH":"2026-04-26T11:12:12.098016","MEAN_MOTION":15.19153018,"ECCENTRICITY":0.0003771,"INCLINATION":97.4196,"RA_OF_ASC_NODE":190.7883,"ARG_OF_PERICENTER":183.6319,"MEAN_ANOMALY":176.4889,"EPHEMERIS_TYPE":0,"CLASSIFICATION_TYPE":"U","NORAD_CAT_ID":66721,"ELEMENT_SET_NO":999,"REV_AT_EPOCH":2256,"BSTAR":0.00036595,"MEAN_MOTION_DOT":7.627e-5,"MEAN_MOTION_DDOT":0},{"OBJECT_NAME":"FLOCK 4H-19","OBJECT_ID":"2025-276BJ","EPOCH":"2026-04-25T22:32:54.069216","MEAN_MOTION":15.20449681,"ECCENTRICITY":0.00032758,"INCLINATION":97.4194,"RA_OF_ASC_NODE":190.5804,"ARG_OF_PERICENTER":108.3861,"MEAN_ANOMALY":251.7731,"EPHEMERIS_TYPE":0,"CLASSIFICATION_TYPE":"U","NORAD_CAT_ID":66722,"ELEMENT_SET_NO":999,"REV_AT_EPOCH":2179,"BSTAR":0.00031112111,"MEAN_MOTION_DOT":6.723e-5,"MEAN_MOTION_DDOT":0},{"OBJECT_NAME":"FLOCK 4H-20","OBJECT_ID":"2025-276BK","EPOCH":"2026-04-26T11:23:49.416000","MEAN_MOTION":15.20538111,"ECCENTRICITY":0.0004147,"INCLINATION":97.4233,"RA_OF_ASC_NODE":191.16,"ARG_OF_PERICENTER":115.8388,"MEAN_ANOMALY":244.3276,"EPHEMERIS_TYPE":0,"CLASSIFICATION_TYPE":"U","NORAD_CAT_ID":66723,"ELEMENT_SET_NO":999,"REV_AT_EPOCH":2183,"BSTAR":0.00040911,"MEAN_MOTION_DOT":8.888e-5,"MEAN_MOTION_DDOT":0},{"OBJECT_NAME":"FLOCK 4H-21","OBJECT_ID":"2025-276BL","EPOCH":"2026-04-25T18:16:28.101504","MEAN_MOTION":15.20188123,"ECCENTRICITY":0.00040141,"INCLINATION":97.4197,"RA_OF_ASC_NODE":190.3644,"ARG_OF_PERICENTER":117.6983,"MEAN_ANOMALY":242.466,"EPHEMERIS_TYPE":0,"CLASSIFICATION_TYPE":"U","NORAD_CAT_ID":66724,"ELEMENT_SET_NO":999,"REV_AT_EPOCH":2172,"BSTAR":0.00025389668,"MEAN_MOTION_DOT":5.431e-5,"MEAN_MOTION_DDOT":0},{"OBJECT_NAME":"FLOCK 4H-22","OBJECT_ID":"2025-276BM","EPOCH":"2026-04-26T10:24:08.156736","MEAN_MOTION":15.19521713,"ECCENTRICITY":0.0002716,"INCLINATION":97.4188,"RA_OF_ASC_NODE":190.8179,"ARG_OF_PERICENTER":175.6615,"MEAN_ANOMALY":184.4644,"EPHEMERIS_TYPE":0,"CLASSIFICATION_TYPE":"U","NORAD_CAT_ID":66725,"ELEMENT_SET_NO":999,"REV_AT_EPOCH":2256,"BSTAR":0.00037838,"MEAN_MOTION_DOT":7.973e-5,"MEAN_MOTION_DDOT":0},{"OBJECT_NAME":"FLOCK 4H-23","OBJECT_ID":"2025-276BN","EPOCH":"2026-04-26T11:09:42.384096","MEAN_MOTION":15.19128399,"ECCENTRICITY":0.0005188,"INCLINATION":97.4258,"RA_OF_ASC_NODE":190.9112,"ARG_OF_PERICENTER":158.7699,"MEAN_ANOMALY":201.3751,"EPHEMERIS_TYPE":0,"CLASSIFICATION_TYPE":"U","NORAD_CAT_ID":66726,"ELEMENT_SET_NO":999,"REV_AT_EPOCH":2256,"BSTAR":0.00036834,"MEAN_MOTION_DOT":7.673e-5,"MEAN_MOTION_DDOT":0},{"OBJECT_NAME":"FLOCK 4H-24","OBJECT_ID":"2025-276BP","EPOCH":"2026-04-26T03:01:10.885152","MEAN_MOTION":15.19219069,"ECCENTRICITY":0.0004279,"INCLINATION":97.4251,"RA_OF_ASC_NODE":190.5987,"ARG_OF_PERICENTER":171.7606,"MEAN_ANOMALY":188.3699,"EPHEMERIS_TYPE":0,"CLASSIFICATION_TYPE":"U","NORAD_CAT_ID":66727,"ELEMENT_SET_NO":999,"REV_AT_EPOCH":2251,"BSTAR":0.0003486,"MEAN_MOTION_DOT":7.276e-5,"MEAN_MOTION_DDOT":0},{"OBJECT_NAME":"FLOCK 4H-25","OBJECT_ID":"2025-276BQ","EPOCH":"2026-04-25T18:36:05.654016","MEAN_MOTION":15.20073756,"ECCENTRICITY":0.00022531,"INCLINATION":97.4209,"RA_OF_ASC_NODE":190.3684,"ARG_OF_PERICENTER":102.8959,"MEAN_ANOMALY":257.2528,"EPHEMERIS_TYPE":0,"CLASSIFICATION_TYPE":"U","NORAD_CAT_ID":66728,"ELEMENT_SET_NO":999,"REV_AT_EPOCH":2175,"BSTAR":0.00029563881,"MEAN_MOTION_DOT":6.314e-5,"MEAN_MOTION_DDOT":0},{"OBJECT_NAME":"FLOCK 4H-26","OBJECT_ID":"2025-276BR","EPOCH":"2026-04-26T11:24:09.002880","MEAN_MOTION":15.18987996,"ECCENTRICITY":0.0005181,"INCLINATION":97.4206,"RA_OF_ASC_NODE":190.8027,"ARG_OF_PERICENTER":171.8718,"MEAN_ANOMALY":188.2601,"EPHEMERIS_TYPE":0,"CLASSIFICATION_TYPE":"U","NORAD_CAT_ID":66729,"ELEMENT_SET_NO":999,"REV_AT_EPOCH":2256,"BSTAR":0.00037031,"MEAN_MOTION_DOT":7.683e-5,"MEAN_MOTION_DDOT":0},{"OBJECT_NAME":"FLOCK 4H-27","OBJECT_ID":"2025-276BS","EPOCH":"2026-04-26T12:26:42.333792","MEAN_MOTION":15.19814011,"ECCENTRICITY":0.0002294,"INCLINATION":97.4183,"RA_OF_ASC_NODE":191.0056,"ARG_OF_PERICENTER":113.6894,"MEAN_ANOMALY":246.4581,"EPHEMERIS_TYPE":0,"CLASSIFICATION_TYPE":"U","NORAD_CAT_ID":66730,"ELEMENT_SET_NO":999,"REV_AT_EPOCH":2258,"BSTAR":0.00030835,"MEAN_MOTION_DOT":6.539e-5,"MEAN_MOTION_DDOT":0},{"OBJECT_NAME":"FLOCK 4H-28","OBJECT_ID":"2025-276BT","EPOCH":"2026-04-25T22:43:08.706720","MEAN_MOTION":15.1903388,"ECCENTRICITY":0.00047266,"INCLINATION":97.4193,"RA_OF_ASC_NODE":190.2636,"ARG_OF_PERICENTER":174.3927,"MEAN_ANOMALY":185.7361,"EPHEMERIS_TYPE":0,"CLASSIFICATION_TYPE":"U","NORAD_CAT_ID":66731,"ELEMENT_SET_NO":999,"REV_AT_EPOCH":2248,"BSTAR":0.00037283789,"MEAN_MOTION_DOT":7.746e-5,"MEAN_MOTION_DDOT":0},{"OBJECT_NAME":"FLOCK 4H-29","OBJECT_ID":"2025-276BU","EPOCH":"2026-04-26T12:39:55.109952","MEAN_MOTION":15.19132984,"ECCENTRICITY":0.0003399,"INCLINATION":97.4188,"RA_OF_ASC_NODE":190.8424,"ARG_OF_PERICENTER":175.9072,"MEAN_ANOMALY":184.2191,"EPHEMERIS_TYPE":0,"CLASSIFICATION_TYPE":"U","NORAD_CAT_ID":66732,"ELEMENT_SET_NO":999,"REV_AT_EPOCH":2257,"BSTAR":0.00034671,"MEAN_MOTION_DOT":7.218e-5,"MEAN_MOTION_DDOT":0},{"OBJECT_NAME":"FLOCK 4H-30","OBJECT_ID":"2025-276BV","EPOCH":"2026-04-26T12:36:16.854048","MEAN_MOTION":15.19212645,"ECCENTRICITY":0.0004601,"INCLINATION":97.425,"RA_OF_ASC_NODE":190.97,"ARG_OF_PERICENTER":171.1233,"MEAN_ANOMALY":189.0084,"EPHEMERIS_TYPE":0,"CLASSIFICATION_TYPE":"U","NORAD_CAT_ID":66733,"ELEMENT_SET_NO":999,"REV_AT_EPOCH":2257,"BSTAR":0.00036429,"MEAN_MOTION_DOT":7.606e-5,"MEAN_MOTION_DDOT":0},{"OBJECT_NAME":"FLOCK 4H-31","OBJECT_ID":"2025-276BW","EPOCH":"2026-04-25T17:52:58.552896","MEAN_MOTION":15.19022509,"ECCENTRICITY":0.00038473,"INCLINATION":97.4184,"RA_OF_ASC_NODE":190.0541,"ARG_OF_PERICENTER":177.6054,"MEAN_ANOMALY":182.52,"EPHEMERIS_TYPE":0,"CLASSIFICATION_TYPE":"U","NORAD_CAT_ID":66734,"ELEMENT_SET_NO":999,"REV_AT_EPOCH":2245,"BSTAR":0.00030983778,"MEAN_MOTION_DOT":6.422e-5,"MEAN_MOTION_DDOT":0}]
